{"type":"FeatureCollection","features":[{"type":"Feature","properties":{"nome":"Barberino di Mugello","osm_id":42772},"geometry":{"type":"Polygon","coordinates":[[[11.16939,43.96322],[11.17476,43.95219],[11.17655,43.95133],[11.17714,43.95013],[11.18014,43.94936],[11.18338,43.94975],[11.18806,43.94844],[11.18909,43.94771],[11.19085,43.94817],[11.1925,43.9477],[11.19672,43.94863],[11.20342,43.94912],[11.20502,43.95023],[11.20721,43.95322],[11.21053,43.95582],[11.21368,43.95436],[11.21591,43.95539],[11.21668,43.95472],[11.221,43.95684],[11.22208,43.95799],[11.22652,43.9555],[11.22645,43.95448],[11.22705,43.95384],[11.22937,43.95392],[11.23408,43.95181],[11.23916,43.95278],[11.24068,43.95289],[11.2417,43.9524],[11.2467,43.95339],[11.25192,43.95365],[11.2555,43.95253],[11.25694,43.95551],[11.25679,43.95644],[11.25818,43.95866],[11.25889,43.96238],[11.25833,43.96525],[11.25682,43.96654],[11.25677,43.96776],[11.2592,43.97133],[11.26091,43.97075],[11.2631,43.96899],[11.26448,43.96909],[11.26767,43.96762],[11.2688,43.96767],[11.26945,43.9666],[11.27051,43.96624],[11.27093,43.96518],[11.27206,43.9647],[11.27427,43.96396],[11.27525,43.9648],[11.27655,43.96436],[11.2783,43.96478],[11.2791,43.96431],[11.27952,43.96308],[11.28045,43.96296],[11.28146,43.964],[11.2862,43.9635],[11.29126,43.96484],[11.29063,43.96414],[11.29057,43.96288],[11.29623,43.96452],[11.30308,43.96451],[11.29999,43.96657],[11.29848,43.9685],[11.29463,43.97156],[11.29076,43.97228],[11.28968,43.97503],[11.29122,43.97549],[11.29184,43.9808],[11.29504,43.98721],[11.29506,43.98918],[11.29604,43.99158],[11.29552,43.99352],[11.29311,43.99788],[11.29875,43.99915],[11.30164,43.99918],[11.3019,43.99731],[11.30261,43.99658],[11.30413,43.99735],[11.30563,43.99744],[11.30649,43.99543],[11.30944,43.99645],[11.31079,43.99379],[11.31182,43.99279],[11.31272,43.99269],[11.31291,43.99574],[11.31152,43.9978],[11.3123,43.99941],[11.31214,44.00163],[11.31087,44.00338],[11.30972,44.00389],[11.30906,44.00706],[11.30507,44.00864],[11.30219,44.01112],[11.30206,44.01252],[11.30067,44.0141],[11.29932,44.01678],[11.29842,44.01963],[11.29902,44.02151],[11.2979,44.02451],[11.29794,44.02602],[11.29665,44.02721],[11.29447,44.02779],[11.28592,44.03698],[11.2706,44.03922],[11.26985,44.04059],[11.26901,44.04106],[11.27058,44.04212],[11.26929,44.04529],[11.27006,44.04952],[11.27232,44.05029],[11.27259,44.05268],[11.27405,44.05371],[11.2751,44.05559],[11.27703,44.05758],[11.2771,44.05826],[11.27849,44.05895],[11.27935,44.06112],[11.28178,44.06272],[11.28507,44.06755],[11.28424,44.07123],[11.28706,44.07331],[11.28768,44.07525],[11.28905,44.07507],[11.29015,44.07637],[11.29139,44.07663],[11.29244,44.07811],[11.29989,44.08378],[11.29826,44.08417],[11.29593,44.08568],[11.29309,44.08638],[11.29074,44.08787],[11.28834,44.08847],[11.2861,44.0899],[11.28579,44.08942],[11.28121,44.0898],[11.28132,44.08816],[11.28042,44.08734],[11.28116,44.08684],[11.27978,44.08589],[11.27935,44.08405],[11.27819,44.08231],[11.27866,44.08086],[11.27837,44.08041],[11.27731,44.07951],[11.27568,44.07916],[11.27476,44.07775],[11.27311,44.07674],[11.27237,44.07475],[11.27109,44.07473],[11.27093,44.07395],[11.26993,44.07426],[11.26794,44.07386],[11.26598,44.07183],[11.26198,44.07051],[11.26017,44.07107],[11.26114,44.07239],[11.26262,44.07273],[11.26232,44.07393],[11.26135,44.07415],[11.26105,44.07569],[11.26298,44.07551],[11.26158,44.07647],[11.26143,44.0779],[11.25993,44.07832],[11.2598,44.07943],[11.26074,44.08197],[11.26062,44.08929],[11.26349,44.0894],[11.26554,44.09549],[11.26548,44.09888],[11.26501,44.09965],[11.26352,44.10043],[11.26436,44.10298],[11.26383,44.10429],[11.26216,44.10376],[11.25953,44.10436],[11.25243,44.10446],[11.25153,44.10411],[11.25086,44.10084],[11.24915,44.09873],[11.248,44.09778],[11.24687,44.09791],[11.24427,44.09712],[11.2415,44.09761],[11.24113,44.0982],[11.23962,44.09862],[11.23872,44.09935],[11.23917,44.09994],[11.23882,44.10053],[11.23738,44.1015],[11.23528,44.10146],[11.23576,44.10114],[11.23132,44.10045],[11.22945,44.10204],[11.22835,44.10241],[11.22362,44.101],[11.22086,44.1014],[11.21911,44.10017],[11.21329,44.09886],[11.21143,44.09928],[11.2087,44.09914],[11.20634,44.09975],[11.20601,44.10027],[11.20105,44.10095],[11.19882,44.09785],[11.19947,44.09518],[11.20284,44.09226],[11.20639,44.09214],[11.20788,44.09037],[11.20957,44.08964],[11.20975,44.08901],[11.20844,44.08614],[11.2037,44.0853],[11.20203,44.08403],[11.1995,44.08336],[11.19902,44.08296],[11.19935,44.08248],[11.19913,44.08086],[11.19371,44.07795],[11.19174,44.078],[11.19016,44.07744],[11.18928,44.07633],[11.19002,44.07626],[11.18983,44.07597],[11.18718,44.07527],[11.18772,44.07379],[11.18754,44.07225],[11.18684,44.07166],[11.18692,44.06999],[11.18594,44.06876],[11.18688,44.06363],[11.18555,44.05993],[11.18652,44.05756],[11.18619,44.05628],[11.18388,44.05335],[11.18154,44.05237],[11.18041,44.0511],[11.18091,44.04842],[11.17934,44.04577],[11.17942,44.0423],[11.18324,44.03906],[11.18569,44.03512],[11.18943,44.03336],[11.19079,44.03213],[11.19157,44.02981],[11.19008,44.02733],[11.18836,44.0187],[11.18761,44.01828],[11.18696,44.017],[11.18096,44.01504],[11.17957,44.0132],[11.17821,44.01292],[11.17864,44.0103],[11.17751,44.0101],[11.17581,44.01119],[11.17369,44.01147],[11.17354,44.01105],[11.17477,44.00986],[11.17403,44.00998],[11.17426,44.00954],[11.17647,44.00875],[11.17703,44.0069],[11.17708,44.0053],[11.17508,44.00267],[11.17655,43.99951],[11.17663,43.99882],[11.17597,43.998],[11.176,43.99586],[11.17911,43.99435],[11.18004,43.99364],[11.18001,43.99281],[11.17986,43.99167],[11.17835,43.99086],[11.17789,43.98987],[11.17828,43.9891],[11.17799,43.98689],[11.17722,43.98615],[11.17423,43.98521],[11.17323,43.98378],[11.1725,43.98112],[11.17104,43.98055],[11.17315,43.97876],[11.17382,43.97653],[11.17229,43.97339],[11.1728,43.97169],[11.1712,43.9664],[11.16939,43.96322]]]}},{"type":"Feature","properties":{"nome":"Borgo San Lorenzo","osm_id":42710},"geometry":{"type":"Polygon","coordinates":[[[11.30686,43.93022],[11.30861,43.9285],[11.31101,43.92717],[11.31046,43.92545],[11.31069,43.923],[11.31009,43.9201],[11.31131,43.91576],[11.31082,43.91463],[11.3116,43.91297],[11.3109,43.91216],[11.31267,43.91228],[11.31742,43.91052],[11.31652,43.90903],[11.3164,43.90774],[11.31799,43.90597],[11.32019,43.90472],[11.32128,43.90472],[11.32521,43.90282],[11.32729,43.90244],[11.33027,43.89933],[11.33263,43.89849],[11.33248,43.8982],[11.33479,43.89664],[11.33552,43.89456],[11.33494,43.89416],[11.33599,43.89358],[11.34003,43.89318],[11.34162,43.89247],[11.34254,43.89293],[11.34345,43.89205],[11.34495,43.89177],[11.35255,43.89162],[11.35409,43.89101],[11.35346,43.88961],[11.35187,43.88825],[11.35208,43.88697],[11.34959,43.88275],[11.34726,43.8815],[11.34489,43.87875],[11.34478,43.87637],[11.34347,43.87493],[11.34471,43.87017],[11.38071,43.87292],[11.40031,43.86994],[11.40545,43.87392],[11.40953,43.87408],[11.42627,43.87241],[11.43573,43.87975],[11.44241,43.8812],[11.44244,43.88448],[11.44285,43.88501],[11.44252,43.88667],[11.44193,43.88555],[11.44109,43.88624],[11.43985,43.886],[11.43571,43.88819],[11.43533,43.88956],[11.43655,43.89213],[11.43565,43.89505],[11.43435,43.8964],[11.43382,43.89782],[11.43177,43.89847],[11.43015,43.89964],[11.4284,43.90215],[11.42923,43.90503],[11.43002,43.90568],[11.42981,43.90779],[11.42829,43.90849],[11.42692,43.91021],[11.42666,43.91242],[11.42454,43.91373],[11.42386,43.91507],[11.42346,43.91843],[11.42254,43.92018],[11.41912,43.92404],[11.4177,43.92448],[11.4197,43.92757],[11.42248,43.92899],[11.42427,43.93132],[11.423,43.93342],[11.42181,43.93442],[11.4212,43.9341],[11.41901,43.93605],[11.41752,43.93825],[11.41643,43.93865],[11.41775,43.94037],[11.41876,43.94391],[11.41961,43.9476],[11.41923,43.94785],[11.41946,43.94986],[11.42111,43.9519],[11.42093,43.95288],[11.41997,43.95315],[11.42018,43.95419],[11.41942,43.95453],[11.42077,43.95717],[11.41813,43.95803],[11.4187,43.95916],[11.41637,43.96032],[11.41726,43.96176],[11.41917,43.96139],[11.4196,43.96341],[11.42087,43.96343],[11.42109,43.96637],[11.41982,43.96657],[11.42009,43.96741],[11.42083,43.96735],[11.42082,43.96843],[11.42988,43.96825],[11.43147,43.96983],[11.43414,43.97386],[11.43619,43.97561],[11.43631,43.97648],[11.43742,43.97758],[11.43642,43.97836],[11.43813,43.98012],[11.43621,43.98138],[11.43488,43.98096],[11.43777,43.98293],[11.43605,43.98503],[11.43699,43.98515],[11.43452,43.98671],[11.43433,43.98767],[11.44063,43.98717],[11.44224,43.98814],[11.4461,43.99185],[11.44651,43.99286],[11.44608,43.9948],[11.44488,43.99616],[11.44594,43.99868],[11.44857,44.0003],[11.44894,44.00111],[11.45125,44.00217],[11.45206,44.0034],[11.45881,44.00693],[11.45923,44.0084],[11.46421,44.01027],[11.4654,44.01144],[11.46943,44.01257],[11.47058,44.01491],[11.47248,44.01636],[11.47681,44.02266],[11.4764,44.02375],[11.47723,44.02436],[11.47667,44.02495],[11.48253,44.02646],[11.48358,44.02713],[11.4855,44.02707],[11.48459,44.02836],[11.48592,44.03148],[11.48819,44.03041],[11.49329,44.03168],[11.49522,44.03077],[11.4953,44.03034],[11.49708,44.02996],[11.49881,44.02802],[11.50162,44.02637],[11.50276,44.02498],[11.50579,44.02416],[11.50796,44.02287],[11.51515,44.02064],[11.5207,44.01967],[11.52258,44.01863],[11.52462,44.02155],[11.52793,44.02256],[11.52962,44.02491],[11.53444,44.02747],[11.53253,44.02943],[11.53219,44.03156],[11.53106,44.03274],[11.53014,44.03269],[11.52914,44.03479],[11.52717,44.03703],[11.52582,44.03724],[11.52555,44.03787],[11.52209,44.03798],[11.51888,44.03976],[11.51523,44.04054],[11.51197,44.04185],[11.5041,44.04343],[11.49967,44.04373],[11.49875,44.04431],[11.4998,44.04677],[11.49794,44.048],[11.49643,44.05024],[11.49421,44.05133],[11.49253,44.05354],[11.48825,44.05515],[11.48648,44.05653],[11.48402,44.05718],[11.48089,44.05658],[11.47675,44.05829],[11.47554,44.05997],[11.47242,44.06004],[11.47146,44.06066],[11.47144,44.06156],[11.47098,44.06176],[11.46938,44.06109],[11.46617,44.06165],[11.46617,44.06047],[11.46542,44.06026],[11.46442,44.0606],[11.46239,44.06258],[11.45855,44.06354],[11.45785,44.06356],[11.45638,44.0612],[11.45498,44.06104],[11.45494,44.06039],[11.45221,44.05846],[11.45018,44.05511],[11.4511,44.05317],[11.4504,44.05251],[11.45131,44.05132],[11.45016,44.05152],[11.4485,44.05017],[11.44049,44.05053],[11.43809,44.04933],[11.43526,44.05036],[11.43343,44.04937],[11.42941,44.04944],[11.42571,44.04698],[11.42336,44.04914],[11.41776,44.05022],[11.41504,44.04938],[11.4129,44.04743],[11.40998,44.04736],[11.4037,44.04426],[11.40207,44.04474],[11.40105,44.04568],[11.39799,44.04624],[11.39294,44.04515],[11.39073,44.04342],[11.39121,44.04221],[11.39055,44.04154],[11.3896,44.03729],[11.39084,44.03554],[11.39001,44.03536],[11.38927,44.03425],[11.38902,44.0312],[11.38684,44.02997],[11.3872,44.02892],[11.38616,44.02638],[11.3858,44.02362],[11.38485,44.02315],[11.38545,44.02267],[11.38528,44.02185],[11.38419,44.02103],[11.38421,44.01974],[11.38277,44.01846],[11.38379,44.01777],[11.38285,44.01697],[11.38258,44.01427],[11.38322,44.0128],[11.38248,44.01129],[11.38365,44.0102],[11.3835,44.00666],[11.38371,44.00579],[11.38479,44.0049],[11.38397,44.00303],[11.38491,44.00179],[11.38421,44.00014],[11.38489,43.99994],[11.38637,43.9974],[11.38699,43.99496],[11.38303,43.99298],[11.38186,43.99061],[11.38004,43.98857],[11.37711,43.98837],[11.3771,43.98559],[11.37355,43.98454],[11.37331,43.98417],[11.37434,43.98355],[11.37573,43.98443],[11.3765,43.98399],[11.37146,43.97759],[11.37573,43.97584],[11.37593,43.97625],[11.37707,43.97586],[11.37602,43.97424],[11.37898,43.97344],[11.37782,43.96981],[11.37535,43.96653],[11.37509,43.96412],[11.37245,43.96498],[11.37226,43.96332],[11.36949,43.9621],[11.3697,43.96154],[11.36861,43.96163],[11.3686,43.96353],[11.36711,43.96352],[11.36703,43.96414],[11.36462,43.96414],[11.36096,43.96096],[11.35106,43.96112],[11.34932,43.95662],[11.34832,43.95707],[11.34351,43.95277],[11.34087,43.95104],[11.33787,43.94969],[11.33406,43.94885],[11.33255,43.94629],[11.32579,43.94337],[11.32335,43.94158],[11.32282,43.94057],[11.32304,43.9395],[11.32112,43.93762],[11.32016,43.93546],[11.31854,43.93496],[11.31442,43.93039],[11.31123,43.93004],[11.30963,43.93091],[11.30686,43.93022]]]}},{"type":"Feature","properties":{"nome":"Dicomano","osm_id":42705},"geometry":{"type":"Polygon","coordinates":[[[11.47771,43.88201],[11.48542,43.87822],[11.49445,43.87619],[11.49816,43.87565],[11.50107,43.87607],[11.50186,43.87738],[11.50427,43.87714],[11.50656,43.87523],[11.51003,43.87361],[11.51564,43.87164],[11.51749,43.87179],[11.5239,43.86596],[11.53105,43.86273],[11.53757,43.86265],[11.54272,43.86354],[11.54826,43.86382],[11.54965,43.86538],[11.55168,43.86583],[11.55335,43.86465],[11.5563,43.86565],[11.55859,43.86462],[11.56041,43.86567],[11.56298,43.86556],[11.56201,43.86603],[11.56278,43.8661],[11.56413,43.86574],[11.56528,43.86504],[11.5651,43.8647],[11.56632,43.86525],[11.56838,43.86777],[11.57017,43.86865],[11.57032,43.87041],[11.57185,43.87183],[11.57467,43.87235],[11.57397,43.87629],[11.57217,43.87882],[11.57221,43.88074],[11.58076,43.89328],[11.59057,43.89196],[11.59079,43.89386],[11.59222,43.89414],[11.59255,43.89486],[11.59498,43.89512],[11.59583,43.8957],[11.59725,43.895],[11.60361,43.89661],[11.60619,43.89594],[11.60855,43.89421],[11.61193,43.8932],[11.61925,43.89344],[11.62259,43.8924],[11.62725,43.8933],[11.61988,43.89664],[11.61684,43.89974],[11.61136,43.90223],[11.60947,43.90371],[11.60634,43.90325],[11.60218,43.90449],[11.59656,43.90351],[11.58759,43.90376],[11.58831,43.90428],[11.58739,43.90494],[11.58632,43.9068],[11.5837,43.90744],[11.58239,43.90724],[11.58109,43.909],[11.57982,43.90864],[11.57836,43.90901],[11.5783,43.90961],[11.57917,43.91025],[11.57774,43.91087],[11.5789,43.91192],[11.57819,43.91217],[11.57841,43.91257],[11.57939,43.91283],[11.57822,43.91421],[11.57758,43.9141],[11.5762,43.91545],[11.57405,43.91537],[11.57214,43.91427],[11.57278,43.9132],[11.57275,43.91192],[11.57228,43.91201],[11.5713,43.91097],[11.56852,43.91191],[11.56795,43.91165],[11.56792,43.91106],[11.567,43.91081],[11.56374,43.91097],[11.56277,43.91181],[11.56151,43.91173],[11.56161,43.91365],[11.55987,43.91176],[11.55846,43.91144],[11.55704,43.91035],[11.55552,43.91077],[11.55407,43.91257],[11.54986,43.91543],[11.55509,43.91693],[11.5544,43.91887],[11.55485,43.92143],[11.55572,43.92333],[11.5552,43.92435],[11.55279,43.92328],[11.55216,43.92466],[11.55367,43.92569],[11.55464,43.9255],[11.55586,43.9263],[11.55397,43.92801],[11.55762,43.92965],[11.56082,43.93002],[11.56267,43.93163],[11.56451,43.93013],[11.56619,43.93154],[11.56685,43.93113],[11.56688,43.9317],[11.56821,43.9308],[11.56863,43.93149],[11.56945,43.93152],[11.56924,43.93276],[11.57001,43.93394],[11.57253,43.93382],[11.57344,43.93587],[11.57311,43.93683],[11.5736,43.93868],[11.57559,43.93912],[11.57631,43.93993],[11.57663,43.94165],[11.57932,43.94383],[11.58004,43.94555],[11.58161,43.94706],[11.58277,43.94736],[11.58299,43.94812],[11.58416,43.94821],[11.58432,43.94941],[11.58483,43.94986],[11.5846,43.95036],[11.58571,43.95089],[11.58682,43.95278],[11.59058,43.9551],[11.58889,43.95611],[11.58897,43.95704],[11.59267,43.95825],[11.59202,43.95897],[11.59315,43.96068],[11.59429,43.96072],[11.59416,43.96201],[11.59533,43.96314],[11.59656,43.96199],[11.59764,43.96256],[11.60012,43.96632],[11.59976,43.96736],[11.60025,43.96857],[11.59949,43.97008],[11.5996,43.97091],[11.60231,43.97232],[11.60274,43.97373],[11.60449,43.97447],[11.60488,43.97553],[11.60596,43.97649],[11.60597,43.97792],[11.60757,43.9797],[11.60668,43.98147],[11.6079,43.98263],[11.60816,43.98391],[11.60782,43.98428],[11.61119,43.98562],[11.61429,43.98622],[11.61671,43.9862],[11.61733,43.98551],[11.6184,43.9854],[11.6188,43.98623],[11.62018,43.98678],[11.61923,43.98797],[11.62021,43.98815],[11.62067,43.98903],[11.62238,43.98939],[11.62272,43.9898],[11.62234,43.99032],[11.62325,43.99107],[11.62229,43.99214],[11.62245,43.99253],[11.62104,43.99225],[11.62013,43.99375],[11.62047,43.99603],[11.62107,43.99671],[11.61993,43.99952],[11.61829,43.99846],[11.61647,43.99834],[11.61561,43.99874],[11.6145,43.9984],[11.61311,44.00073],[11.61326,44.00156],[11.61242,44.00233],[11.61075,44.00284],[11.60659,44.00586],[11.60342,44.00631],[11.60081,44.00752],[11.59324,44.00578],[11.58967,44.00191],[11.58798,44.00113],[11.5875,44.00003],[11.59144,43.99718],[11.59271,43.99496],[11.59219,43.99437],[11.59323,43.99392],[11.59317,43.99263],[11.59398,43.99213],[11.59421,43.99129],[11.59529,43.99117],[11.59637,43.99037],[11.5961,43.98934],[11.59821,43.98807],[11.59695,43.98505],[11.59678,43.9817],[11.59754,43.98007],[11.59501,43.97519],[11.59429,43.9747],[11.5912,43.9748],[11.59024,43.97432],[11.58836,43.97459],[11.58324,43.97319],[11.5795,43.97141],[11.57714,43.97002],[11.57585,43.96825],[11.57371,43.96703],[11.57256,43.96695],[11.57002,43.96436],[11.56652,43.96316],[11.56617,43.96043],[11.56474,43.95994],[11.56272,43.95795],[11.55986,43.95757],[11.55335,43.95559],[11.55271,43.95478],[11.54968,43.95361],[11.54518,43.94856],[11.54215,43.94756],[11.54149,43.94593],[11.54408,43.94234],[11.54365,43.94119],[11.54255,43.94061],[11.54211,43.93947],[11.54099,43.93896],[11.54171,43.93836],[11.53865,43.93759],[11.53626,43.93763],[11.53541,43.9369],[11.53838,43.9348],[11.53821,43.93308],[11.5391,43.93139],[11.53801,43.92654],[11.53426,43.92667],[11.52945,43.92966],[11.52771,43.92917],[11.52498,43.92921],[11.52133,43.93035],[11.51686,43.92785],[11.51484,43.92495],[11.51334,43.92516],[11.5107,43.9236],[11.51041,43.92297],[11.5088,43.92282],[11.50761,43.9222],[11.5073,43.92148],[11.50633,43.92137],[11.5066,43.92068],[11.5058,43.92022],[11.50576,43.91892],[11.50347,43.91809],[11.50201,43.91653],[11.50179,43.91497],[11.50281,43.91335],[11.50619,43.91172],[11.50675,43.91041],[11.50578,43.90911],[11.50162,43.90647],[11.50161,43.90603],[11.5021,43.90532],[11.50924,43.90076],[11.51104,43.8987],[11.50799,43.89777],[11.50766,43.89682],[11.50803,43.89642],[11.50537,43.8965],[11.50344,43.89718],[11.50435,43.89838],[11.5041,43.89907],[11.5018,43.89998],[11.49952,43.90177],[11.49755,43.90063],[11.49659,43.89856],[11.49573,43.89914],[11.49401,43.89902],[11.49203,43.90036],[11.49131,43.9001],[11.4909,43.8985],[11.49236,43.89608],[11.49065,43.89619],[11.48981,43.8949],[11.48709,43.89362],[11.48426,43.88984],[11.48172,43.88801],[11.48134,43.88706],[11.47864,43.88466],[11.47771,43.88201]]]}},{"type":"Feature","properties":{"nome":"Firenzuola","osm_id":42831},"geometry":{"type":"Polygon","coordinates":[[[11.19349,44.14664],[11.19433,44.14516],[11.19575,44.14399],[11.19594,44.14241],[11.19807,44.14216],[11.19929,44.14031],[11.2023,44.14041],[11.20252,44.13961],[11.202,44.1383],[11.20341,44.13877],[11.20449,44.13859],[11.20551,44.13808],[11.20583,44.13723],[11.20734,44.13691],[11.20743,44.13616],[11.20913,44.13616],[11.20984,44.13527],[11.21125,44.13544],[11.211,44.13423],[11.21399,44.13416],[11.2145,44.13351],[11.21404,44.13272],[11.21425,44.13195],[11.2161,44.13176],[11.21629,44.13084],[11.21832,44.12943],[11.21881,44.12841],[11.22005,44.12802],[11.22027,44.12713],[11.22397,44.12827],[11.22783,44.12814],[11.23007,44.1268],[11.23063,44.12513],[11.23675,44.12443],[11.23978,44.12334],[11.24108,44.12228],[11.24188,44.12229],[11.24107,44.12177],[11.24324,44.11971],[11.2453,44.1183],[11.24829,44.11735],[11.24839,44.11683],[11.24974,44.11666],[11.25063,44.11597],[11.25503,44.11507],[11.26037,44.11577],[11.2624,44.11105],[11.26338,44.10531],[11.26436,44.10298],[11.26352,44.10043],[11.26524,44.09937],[11.26561,44.09775],[11.26554,44.09549],[11.26349,44.0894],[11.26062,44.08929],[11.26074,44.08197],[11.2598,44.07943],[11.25993,44.07832],[11.26143,44.0779],[11.26158,44.07647],[11.26298,44.07551],[11.26105,44.07569],[11.26135,44.07415],[11.26232,44.07393],[11.26262,44.07273],[11.26114,44.07239],[11.26034,44.07164],[11.26048,44.07086],[11.2625,44.07053],[11.26428,44.07155],[11.26598,44.07183],[11.26794,44.07386],[11.26993,44.07426],[11.27093,44.07395],[11.27109,44.07473],[11.27237,44.07475],[11.27311,44.07674],[11.27476,44.07775],[11.27568,44.07916],[11.27731,44.07951],[11.27866,44.08086],[11.27819,44.08231],[11.27935,44.08405],[11.27978,44.08589],[11.281,44.08639],[11.28116,44.08684],[11.28042,44.08734],[11.28132,44.08816],[11.28121,44.0898],[11.28579,44.08942],[11.2861,44.0899],[11.29309,44.08638],[11.29593,44.08568],[11.29848,44.08408],[11.30277,44.08291],[11.3103,44.08177],[11.31292,44.0795],[11.31455,44.07872],[11.31612,44.07837],[11.31914,44.07924],[11.32379,44.07926],[11.32523,44.07793],[11.32704,44.07778],[11.32796,44.07674],[11.32837,44.07567],[11.32786,44.07475],[11.32889,44.07277],[11.33587,44.06916],[11.33788,44.07023],[11.34472,44.0708],[11.34765,44.07002],[11.3497,44.06857],[11.35314,44.06819],[11.35938,44.07013],[11.36083,44.07019],[11.36588,44.06751],[11.3705,44.06147],[11.3737,44.05957],[11.37382,44.05837],[11.37504,44.05778],[11.3757,44.0568],[11.37908,44.05583],[11.38048,44.05589],[11.38256,44.05478],[11.38353,44.05278],[11.38382,44.05028],[11.38581,44.04942],[11.38795,44.04761],[11.38813,44.04594],[11.39073,44.04342],[11.39294,44.04515],[11.39799,44.04624],[11.40105,44.04568],[11.40207,44.04474],[11.4037,44.04426],[11.40998,44.04736],[11.4129,44.04743],[11.41504,44.04938],[11.41776,44.05022],[11.42336,44.04914],[11.42571,44.04698],[11.42983,44.04958],[11.43343,44.04937],[11.43526,44.05036],[11.43809,44.04933],[11.44049,44.05053],[11.44793,44.05007],[11.45016,44.05152],[11.45131,44.05132],[11.4504,44.05251],[11.4511,44.05317],[11.45025,44.05452],[11.45039,44.05588],[11.4525,44.05881],[11.45494,44.06039],[11.45498,44.06104],[11.45638,44.0612],[11.45787,44.06352],[11.45699,44.06406],[11.45597,44.06805],[11.4581,44.07131],[11.45716,44.07237],[11.45695,44.07315],[11.45737,44.07381],[11.45655,44.07481],[11.45723,44.07529],[11.45757,44.07661],[11.45718,44.07784],[11.45556,44.0785],[11.45492,44.07957],[11.45281,44.08015],[11.45056,44.08195],[11.44794,44.083],[11.44563,44.08703],[11.44651,44.09035],[11.44623,44.09078],[11.44381,44.09221],[11.44271,44.09205],[11.44,44.09272],[11.4381,44.09235],[11.43638,44.09284],[11.43574,44.09379],[11.43391,44.09437],[11.43401,44.09571],[11.4329,44.09684],[11.43487,44.09747],[11.4374,44.09949],[11.4371,44.10014],[11.44142,44.10081],[11.44407,44.10274],[11.44571,44.10241],[11.44737,44.10316],[11.45005,44.10144],[11.45192,44.10142],[11.4553,44.10235],[11.46848,44.10911],[11.46926,44.11063],[11.47356,44.11312],[11.47474,44.11437],[11.47617,44.11669],[11.47784,44.11817],[11.48122,44.1237],[11.4836,44.12382],[11.48581,44.12485],[11.48996,44.12812],[11.49432,44.12901],[11.4936,44.13246],[11.49219,44.13357],[11.49079,44.13586],[11.4979,44.14011],[11.49751,44.1421],[11.49781,44.14308],[11.50209,44.14416],[11.50361,44.14404],[11.50735,44.14518],[11.50905,44.14499],[11.51046,44.146],[11.51412,44.14648],[11.51466,44.14759],[11.51813,44.14914],[11.52429,44.15566],[11.52483,44.1575],[11.52399,44.1563],[11.52226,44.15551],[11.51613,44.15755],[11.51534,44.15809],[11.51635,44.15992],[11.51639,44.16136],[11.51265,44.16362],[11.5098,44.1642],[11.50886,44.16348],[11.50598,44.16347],[11.50337,44.1623],[11.50171,44.16342],[11.50033,44.16576],[11.49908,44.16637],[11.49746,44.1688],[11.49265,44.17065],[11.49188,44.17243],[11.48971,44.17366],[11.48949,44.17456],[11.48662,44.17557],[11.48545,44.17545],[11.4831,44.17661],[11.48283,44.17794],[11.48344,44.1786],[11.48956,44.18016],[11.48641,44.18283],[11.48228,44.18491],[11.48016,44.18379],[11.47327,44.18396],[11.47174,44.18357],[11.46976,44.18457],[11.46787,44.1848],[11.46772,44.1858],[11.47074,44.18971],[11.46647,44.19324],[11.46403,44.19189],[11.46181,44.18907],[11.4602,44.18802],[11.45844,44.18801],[11.45807,44.18834],[11.45836,44.19209],[11.45629,44.19279],[11.4562,44.19367],[11.45288,44.19383],[11.45314,44.19484],[11.45177,44.19637],[11.45167,44.19861],[11.45081,44.20052],[11.44864,44.20032],[11.44763,44.19949],[11.44625,44.20177],[11.44682,44.20263],[11.44681,44.20392],[11.44795,44.20493],[11.4504,44.20585],[11.44989,44.2071],[11.4506,44.20841],[11.45172,44.20879],[11.45484,44.21161],[11.45487,44.21305],[11.45212,44.2151],[11.45081,44.21798],[11.45091,44.22019],[11.45159,44.22081],[11.44508,44.2249],[11.42611,44.23505],[11.42183,44.23981],[11.42017,44.23518],[11.41445,44.23331],[11.41293,44.23201],[11.41225,44.23001],[11.41103,44.22886],[11.40893,44.22866],[11.4071,44.22685],[11.40211,44.22347],[11.39967,44.22344],[11.39743,44.22087],[11.3955,44.22],[11.39514,44.21858],[11.39429,44.21762],[11.39351,44.21464],[11.3893,44.21241],[11.38784,44.20865],[11.38805,44.20651],[11.38712,44.20464],[11.38463,44.20267],[11.37655,44.198],[11.37336,44.19906],[11.37166,44.20071],[11.37011,44.20095],[11.36944,44.20192],[11.36619,44.20364],[11.36198,44.20429],[11.36042,44.20544],[11.35562,44.20417],[11.35225,44.20445],[11.35132,44.20369],[11.34805,44.20421],[11.34702,44.20499],[11.34353,44.20615],[11.34272,44.2048],[11.33825,44.20215],[11.33681,44.20043],[11.33372,44.19955],[11.33183,44.19982],[11.32936,44.19918],[11.32391,44.1942],[11.32351,44.19207],[11.32459,44.19049],[11.32363,44.18927],[11.32391,44.18848],[11.32275,44.18606],[11.3232,44.18429],[11.32194,44.18364],[11.32323,44.18083],[11.31903,44.17984],[11.31645,44.17702],[11.31201,44.17425],[11.31003,44.1738],[11.30603,44.17101],[11.30417,44.17085],[11.30187,44.17162],[11.29625,44.1715],[11.29598,44.17132],[11.2972,44.17012],[11.29736,44.16893],[11.29832,44.16833],[11.28533,44.1623],[11.28509,44.16189],[11.28582,44.16167],[11.28515,44.15974],[11.28275,44.15834],[11.28092,44.15601],[11.28111,44.15372],[11.27825,44.1551],[11.27819,44.15571],[11.27674,44.15705],[11.2715,44.1592],[11.26423,44.15796],[11.26211,44.15874],[11.25954,44.15829],[11.25479,44.15929],[11.25354,44.15891],[11.25238,44.15927],[11.25024,44.15845],[11.23594,44.15853],[11.23403,44.15808],[11.23024,44.15508],[11.22689,44.15355],[11.22494,44.15366],[11.2201,44.15194],[11.21882,44.15133],[11.21778,44.15002],[11.21114,44.15065],[11.20867,44.15007],[11.20688,44.15023],[11.20457,44.15106],[11.2044,44.15149],[11.20099,44.15198],[11.20018,44.15252],[11.19928,44.15174],[11.19742,44.15131],[11.19551,44.1517],[11.19598,44.14924],[11.19455,44.14857],[11.19349,44.14664]]]}},{"type":"Feature","properties":{"nome":"Londa","osm_id":42656},"geometry":{"type":"Polygon","coordinates":[[[11.52461,43.84161],[11.52669,43.8398],[11.53348,43.83657],[11.55174,43.83213],[11.55261,43.83563],[11.55502,43.83651],[11.55858,43.83662],[11.56211,43.83519],[11.56512,43.83536],[11.56995,43.83719],[11.57058,43.83327],[11.57132,43.83157],[11.57216,43.83118],[11.57237,43.82879],[11.57356,43.82711],[11.57273,43.82523],[11.5729,43.82363],[11.57174,43.82252],[11.57167,43.8219],[11.57285,43.82039],[11.57452,43.81645],[11.57488,43.81672],[11.57719,43.81448],[11.57816,43.81416],[11.57896,43.81249],[11.58211,43.81064],[11.58381,43.81025],[11.58606,43.81044],[11.58531,43.80945],[11.58752,43.80859],[11.5911,43.8083],[11.59369,43.80933],[11.59879,43.80984],[11.60069,43.8096],[11.60447,43.81051],[11.60819,43.80811],[11.61041,43.81068],[11.61245,43.81077],[11.61633,43.81335],[11.61819,43.81399],[11.62323,43.81505],[11.62514,43.81752],[11.6252,43.81996],[11.62778,43.82059],[11.62951,43.82185],[11.62944,43.82303],[11.62888,43.82374],[11.62916,43.82524],[11.62857,43.82543],[11.62662,43.82801],[11.62675,43.82935],[11.62607,43.82994],[11.62421,43.83018],[11.62207,43.83183],[11.62392,43.83298],[11.62455,43.83444],[11.62407,43.83583],[11.62525,43.83867],[11.62649,43.84054],[11.62844,43.84124],[11.62901,43.84462],[11.6312,43.84734],[11.63385,43.84747],[11.63638,43.84611],[11.63675,43.8448],[11.64077,43.84592],[11.64489,43.84542],[11.65018,43.84564],[11.6528,43.84161],[11.65313,43.84187],[11.65388,43.84272],[11.65334,43.84364],[11.65425,43.84415],[11.65407,43.84503],[11.655,43.84727],[11.65439,43.84863],[11.65264,43.84993],[11.65191,43.8538],[11.65239,43.85453],[11.65059,43.85701],[11.65077,43.85775],[11.64927,43.86012],[11.6528,43.86199],[11.65266,43.86279],[11.65369,43.86378],[11.65334,43.86419],[11.65434,43.86485],[11.65419,43.86551],[11.65531,43.86672],[11.65725,43.86754],[11.65745,43.86832],[11.6588,43.86881],[11.65989,43.87157],[11.66511,43.87322],[11.66849,43.87645],[11.67065,43.87701],[11.66498,43.87813],[11.66325,43.8796],[11.65982,43.87844],[11.65656,43.87969],[11.65336,43.87814],[11.64547,43.88029],[11.64176,43.88363],[11.6416,43.88651],[11.64209,43.88791],[11.64021,43.89059],[11.63949,43.89104],[11.63416,43.89162],[11.62968,43.89295],[11.62725,43.8933],[11.62259,43.8924],[11.61925,43.89344],[11.61193,43.8932],[11.60855,43.89421],[11.60619,43.89594],[11.60361,43.89661],[11.59725,43.895],[11.59583,43.8957],[11.59498,43.89512],[11.59255,43.89486],[11.59222,43.89414],[11.59079,43.89386],[11.59057,43.89196],[11.58076,43.89328],[11.57221,43.88074],[11.57217,43.87882],[11.57397,43.87629],[11.57467,43.87235],[11.57185,43.87183],[11.57032,43.87041],[11.57017,43.86865],[11.56838,43.86777],[11.56632,43.86525],[11.56534,43.86476],[11.56413,43.86574],[11.56278,43.8661],[11.56201,43.86603],[11.56298,43.86556],[11.56041,43.86567],[11.55859,43.86462],[11.5574,43.86545],[11.55518,43.86552],[11.55398,43.86492],[11.55511,43.86378],[11.5551,43.86181],[11.55365,43.86227],[11.55067,43.86168],[11.54999,43.86083],[11.55029,43.86003],[11.54571,43.85941],[11.54381,43.85871],[11.54345,43.8572],[11.5404,43.85664],[11.54281,43.85594],[11.54383,43.85265],[11.53859,43.85133],[11.53615,43.84964],[11.53434,43.84744],[11.53151,43.84659],[11.52982,43.84417],[11.52874,43.84467],[11.52461,43.84161]]]}},{"type":"Feature","properties":{"nome":"Marradi","osm_id":42797},"geometry":{"type":"Polygon","coordinates":[[[11.49875,44.04431],[11.49967,44.04373],[11.5041,44.04343],[11.51197,44.04185],[11.51523,44.04054],[11.51888,44.03976],[11.52209,44.03798],[11.52555,44.03787],[11.52582,44.03724],[11.52717,44.03703],[11.52914,44.03479],[11.53014,44.03269],[11.53106,44.03274],[11.53219,44.03156],[11.53253,44.02943],[11.53359,44.02868],[11.53448,44.02716],[11.53109,44.02601],[11.52962,44.02491],[11.52773,44.02244],[11.52462,44.02155],[11.52258,44.01863],[11.52359,44.01542],[11.52544,44.01481],[11.52636,44.01335],[11.52775,44.01293],[11.52775,44.01212],[11.52943,44.0115],[11.54376,44.01051],[11.54662,44.00947],[11.54794,44.00978],[11.55018,44.00856],[11.55295,44.0102],[11.55302,44.01108],[11.55374,44.01193],[11.55702,44.01354],[11.55645,44.01452],[11.55715,44.01643],[11.55705,44.01758],[11.55643,44.01876],[11.55722,44.01998],[11.5605,44.02059],[11.56239,44.0203],[11.56356,44.02078],[11.56569,44.01833],[11.56544,44.01629],[11.56873,44.01451],[11.56993,44.0131],[11.56968,44.01161],[11.57113,44.01136],[11.57267,44.00978],[11.57499,44.00953],[11.57873,44.01048],[11.58275,44.01028],[11.58215,44.00967],[11.58278,44.00902],[11.58244,44.007],[11.5835,44.00728],[11.58334,44.00645],[11.58643,44.00455],[11.58683,44.00276],[11.58793,44.0027],[11.58627,44.00135],[11.5875,44.00003],[11.58798,44.00113],[11.58967,44.00191],[11.59331,44.00583],[11.60081,44.00752],[11.60342,44.00631],[11.60659,44.00586],[11.61075,44.00284],[11.61242,44.00233],[11.61326,44.00156],[11.61311,44.00073],[11.6145,43.9984],[11.61561,43.99874],[11.61647,43.99834],[11.61829,43.99846],[11.62007,43.99954],[11.62287,43.99859],[11.62533,43.99706],[11.63157,43.99754],[11.63697,43.99689],[11.63952,43.99389],[11.64215,43.99278],[11.64242,43.99178],[11.64375,43.9911],[11.64493,43.99135],[11.6475,43.99247],[11.64775,43.99399],[11.64961,43.99431],[11.65284,43.99685],[11.65323,43.99819],[11.65269,44.00014],[11.64879,44.00433],[11.64965,44.00617],[11.65207,44.00521],[11.66093,44.00352],[11.66443,44.00512],[11.66451,44.00555],[11.66373,44.00576],[11.66118,44.00903],[11.66138,44.01048],[11.66244,44.01111],[11.66256,44.01181],[11.66185,44.01157],[11.66105,44.01327],[11.65898,44.01451],[11.65969,44.0146],[11.65964,44.01501],[11.65716,44.01722],[11.65725,44.0176],[11.65891,44.01779],[11.66015,44.01962],[11.6629,44.01979],[11.66486,44.02068],[11.66574,44.02042],[11.66888,44.021],[11.66995,44.02169],[11.67557,44.02115],[11.67781,44.02153],[11.67952,44.02092],[11.68218,44.02115],[11.68379,44.02348],[11.68411,44.02578],[11.68487,44.0273],[11.68552,44.02755],[11.68573,44.02862],[11.68691,44.02942],[11.68739,44.03055],[11.69156,44.03224],[11.69585,44.036],[11.69631,44.03815],[11.69602,44.03881],[11.69427,44.03967],[11.69331,44.04072],[11.69937,44.04702],[11.69891,44.04834],[11.69772,44.0495],[11.69788,44.0505],[11.69713,44.05146],[11.69723,44.0522],[11.70007,44.05328],[11.70126,44.05548],[11.70358,44.05708],[11.70356,44.05775],[11.70559,44.05932],[11.70645,44.06228],[11.70814,44.0633],[11.70954,44.06556],[11.70953,44.06697],[11.71271,44.06803],[11.71347,44.06923],[11.71915,44.07419],[11.72187,44.07554],[11.72528,44.07879],[11.7271,44.07975],[11.72849,44.08272],[11.72952,44.08281],[11.73127,44.0842],[11.73386,44.08478],[11.73556,44.08643],[11.73727,44.0889],[11.73663,44.09129],[11.73593,44.09221],[11.73636,44.09299],[11.73827,44.09386],[11.73837,44.09705],[11.73939,44.09806],[11.74028,44.10013],[11.74216,44.10028],[11.74509,44.1019],[11.74567,44.10283],[11.74889,44.1037],[11.74848,44.10916],[11.75065,44.11157],[11.74984,44.11428],[11.75032,44.11669],[11.75306,44.12121],[11.751,44.12176],[11.74913,44.12288],[11.7477,44.12295],[11.74498,44.12553],[11.74225,44.1258],[11.74044,44.1254],[11.73901,44.1259],[11.72979,44.12426],[11.7239,44.12125],[11.71953,44.1204],[11.71526,44.12202],[11.71571,44.12276],[11.71148,44.12242],[11.70566,44.12115],[11.69405,44.12131],[11.68704,44.12078],[11.68606,44.1218],[11.68175,44.12236],[11.67904,44.12347],[11.67785,44.1222],[11.67889,44.11994],[11.6787,44.1192],[11.67509,44.11796],[11.67497,44.11668],[11.6763,44.11524],[11.67652,44.11414],[11.67022,44.11307],[11.66902,44.11148],[11.66472,44.1099],[11.66403,44.10853],[11.66222,44.10708],[11.66114,44.10691],[11.66007,44.1054],[11.65392,44.1029],[11.65213,44.10264],[11.6517,44.10175],[11.65225,44.10068],[11.65185,44.10029],[11.64966,44.1001],[11.64701,44.099],[11.64221,44.10439],[11.64311,44.10809],[11.64211,44.10933],[11.6422,44.11092],[11.63997,44.11057],[11.63566,44.11173],[11.63325,44.1117],[11.63109,44.11251],[11.62864,44.11439],[11.61061,44.11895],[11.60053,44.11818],[11.59891,44.11852],[11.59788,44.11701],[11.58949,44.11293],[11.58442,44.112],[11.58369,44.1114],[11.5835,44.109],[11.58528,44.10752],[11.58511,44.10419],[11.58589,44.10319],[11.5857,44.10255],[11.58396,44.10149],[11.58489,44.09987],[11.58477,44.09919],[11.5868,44.09833],[11.5872,44.09471],[11.58696,44.09078],[11.58295,44.08779],[11.58409,44.08424],[11.58522,44.08337],[11.58588,44.08163],[11.58767,44.08032],[11.57875,44.07626],[11.57906,44.07558],[11.57635,44.07358],[11.57576,44.07193],[11.57634,44.06996],[11.57297,44.0689],[11.56876,44.06922],[11.56882,44.06783],[11.56758,44.06652],[11.56646,44.06427],[11.56422,44.06193],[11.55991,44.06124],[11.55858,44.06154],[11.55745,44.06062],[11.55728,44.0599],[11.55393,44.05763],[11.55006,44.05673],[11.54413,44.05735],[11.5431,44.05666],[11.53883,44.05677],[11.53251,44.05509],[11.53131,44.05536],[11.5295,44.05447],[11.52838,44.05485],[11.52516,44.05318],[11.51744,44.0505],[11.51606,44.04952],[11.51258,44.04963],[11.50505,44.05135],[11.50272,44.049],[11.50065,44.04866],[11.5003,44.04677],[11.49875,44.04431]]]}},{"type":"Feature","properties":{"nome":"Palazzuolo sul Senio","osm_id":42832},"geometry":{"type":"Polygon","coordinates":[[[11.43288,44.09676],[11.43401,44.09571],[11.43391,44.09437],[11.43574,44.09379],[11.43638,44.09284],[11.4381,44.09235],[11.44,44.09272],[11.44271,44.09205],[11.44381,44.09221],[11.44623,44.09078],[11.44651,44.09035],[11.44563,44.08703],[11.44794,44.083],[11.45056,44.08195],[11.45281,44.08015],[11.45492,44.07957],[11.45556,44.0785],[11.45713,44.07794],[11.45757,44.07661],[11.45723,44.07529],[11.45655,44.07481],[11.45737,44.07381],[11.45695,44.07315],[11.45716,44.07237],[11.4581,44.07131],[11.45597,44.06805],[11.45721,44.06385],[11.46228,44.06263],[11.46442,44.0606],[11.46542,44.06026],[11.46617,44.06047],[11.46617,44.06165],[11.46938,44.06109],[11.47098,44.06176],[11.47144,44.06156],[11.47146,44.06066],[11.47242,44.06004],[11.47554,44.05997],[11.47675,44.05829],[11.48089,44.05658],[11.48402,44.05718],[11.48634,44.05658],[11.48825,44.05515],[11.48965,44.05494],[11.49278,44.05338],[11.49421,44.05133],[11.49643,44.05024],[11.49794,44.048],[11.49994,44.0464],[11.50065,44.04866],[11.50272,44.049],[11.50505,44.05135],[11.51258,44.04963],[11.51606,44.04952],[11.51744,44.0505],[11.52516,44.05318],[11.52838,44.05485],[11.5295,44.05447],[11.53131,44.05536],[11.53251,44.05509],[11.53883,44.05677],[11.5431,44.05666],[11.54413,44.05735],[11.55006,44.05673],[11.55393,44.05763],[11.55728,44.0599],[11.55745,44.06062],[11.55858,44.06154],[11.55991,44.06124],[11.56422,44.06193],[11.56646,44.06427],[11.56758,44.06652],[11.56882,44.06783],[11.56876,44.06922],[11.57297,44.0689],[11.57634,44.06996],[11.57576,44.07193],[11.57635,44.07358],[11.57906,44.07558],[11.57875,44.07626],[11.58767,44.08032],[11.58588,44.08163],[11.58522,44.08337],[11.58409,44.08424],[11.58295,44.08779],[11.58696,44.09078],[11.5872,44.09471],[11.5868,44.09833],[11.58477,44.09919],[11.58489,44.09987],[11.58396,44.10149],[11.5857,44.10255],[11.58589,44.10319],[11.58511,44.10419],[11.58528,44.10752],[11.5835,44.109],[11.58331,44.11024],[11.58369,44.1114],[11.58443,44.112],[11.58417,44.11666],[11.58687,44.11949],[11.58821,44.12342],[11.58978,44.12448],[11.6012,44.12475],[11.6023,44.12513],[11.60395,44.12773],[11.60241,44.12868],[11.60207,44.13058],[11.60262,44.13182],[11.6017,44.13313],[11.60402,44.13576],[11.60337,44.13766],[11.60407,44.13857],[11.60695,44.13848],[11.6113,44.14171],[11.61456,44.14118],[11.61697,44.14359],[11.61717,44.14488],[11.6177,44.14516],[11.61705,44.1465],[11.61706,44.14789],[11.61832,44.14965],[11.61679,44.15101],[11.61633,44.15229],[11.61664,44.15286],[11.61464,44.15461],[11.61507,44.15554],[11.61454,44.15646],[11.6152,44.15736],[11.61347,44.15868],[11.61059,44.15994],[11.60928,44.16179],[11.60833,44.16226],[11.60614,44.16073],[11.60376,44.15786],[11.60048,44.15808],[11.59848,44.15901],[11.59421,44.15953],[11.59305,44.16013],[11.59255,44.16177],[11.59071,44.16256],[11.58981,44.16129],[11.58554,44.16192],[11.58178,44.16113],[11.57963,44.16122],[11.57925,44.16167],[11.57559,44.16141],[11.57294,44.16071],[11.57135,44.16298],[11.56975,44.16727],[11.56801,44.16663],[11.56333,44.16773],[11.56201,44.16679],[11.55614,44.16605],[11.55269,44.16475],[11.5538,44.16132],[11.55231,44.15871],[11.54446,44.15239],[11.5402,44.15293],[11.5367,44.1552],[11.53084,44.15682],[11.52945,44.15821],[11.52519,44.15777],[11.52429,44.15566],[11.51813,44.14914],[11.51466,44.14759],[11.51412,44.14648],[11.51046,44.146],[11.50905,44.14499],[11.50735,44.14518],[11.50361,44.14404],[11.50209,44.14416],[11.49781,44.14308],[11.49751,44.1421],[11.4979,44.14011],[11.49079,44.13586],[11.49219,44.13357],[11.4936,44.13246],[11.49432,44.12901],[11.48996,44.12812],[11.48581,44.12485],[11.4836,44.12382],[11.48122,44.1237],[11.47784,44.11817],[11.47617,44.11669],[11.47474,44.11437],[11.47356,44.11312],[11.46926,44.11063],[11.46848,44.10911],[11.4553,44.10235],[11.45192,44.10142],[11.45005,44.10144],[11.44737,44.10316],[11.44571,44.10241],[11.44407,44.10274],[11.44142,44.10081],[11.4371,44.10014],[11.43749,44.09979],[11.43723,44.09934],[11.43478,44.0974],[11.43288,44.09676]]]}},{"type":"Feature","properties":{"nome":"Pelago","osm_id":42620},"geometry":{"type":"Polygon","coordinates":[[[11.44114,43.77006],[11.45326,43.77155],[11.45531,43.77133],[11.45705,43.77035],[11.45843,43.76627],[11.45989,43.76433],[11.46448,43.76146],[11.46558,43.75966],[11.46587,43.75839],[11.46405,43.75561],[11.46374,43.75286],[11.46481,43.75012],[11.46758,43.7471],[11.46621,43.74236],[11.46877,43.74029],[11.47173,43.73949],[11.47291,43.7387],[11.47526,43.73833],[11.47559,43.73896],[11.47775,43.73934],[11.47921,43.73824],[11.48048,43.7383],[11.48111,43.73884],[11.4826,43.73857],[11.48689,43.73992],[11.4887,43.73909],[11.49175,43.73987],[11.49477,43.73936],[11.49593,43.74024],[11.49762,43.73987],[11.49807,43.74114],[11.49896,43.74131],[11.49993,43.74222],[11.50587,43.74171],[11.50716,43.74293],[11.50985,43.74323],[11.513,43.74449],[11.5146,43.74441],[11.51488,43.74592],[11.51626,43.74684],[11.52048,43.74666],[11.52126,43.74684],[11.52155,43.74756],[11.5242,43.74785],[11.52519,43.74883],[11.52545,43.7506],[11.52622,43.75097],[11.52662,43.75205],[11.52768,43.75259],[11.53108,43.75266],[11.53288,43.75222],[11.5341,43.75287],[11.53746,43.75223],[11.54243,43.75315],[11.54482,43.75375],[11.54668,43.75556],[11.54837,43.75559],[11.54938,43.75618],[11.55204,43.75891],[11.55441,43.75903],[11.55795,43.76059],[11.55914,43.76038],[11.55975,43.76105],[11.56288,43.76214],[11.56445,43.76162],[11.56788,43.76169],[11.56773,43.76381],[11.57039,43.76621],[11.57301,43.76647],[11.57707,43.76492],[11.57844,43.76586],[11.58026,43.76632],[11.58427,43.76906],[11.59552,43.77109],[11.59484,43.77696],[11.59507,43.77776],[11.59712,43.77991],[11.59697,43.78125],[11.59771,43.78198],[11.59699,43.78296],[11.60178,43.78387],[11.60366,43.78731],[11.59025,43.78254],[11.5857,43.77962],[11.58344,43.78128],[11.58208,43.78145],[11.57824,43.785],[11.57565,43.78553],[11.57291,43.78715],[11.5678,43.78829],[11.56519,43.78986],[11.56128,43.79011],[11.55931,43.79094],[11.55834,43.7943],[11.55847,43.79626],[11.55727,43.79776],[11.55594,43.79815],[11.55507,43.79944],[11.55344,43.80014],[11.55315,43.80288],[11.55042,43.8044],[11.54918,43.80425],[11.54543,43.80518],[11.54466,43.80622],[11.54176,43.80785],[11.54145,43.80942],[11.53951,43.80968],[11.53745,43.81138],[11.53725,43.81025],[11.53418,43.81116],[11.5301,43.81115],[11.52263,43.81365],[11.52066,43.81348],[11.51818,43.81135],[11.52025,43.80615],[11.5214,43.80626],[11.5231,43.80474],[11.52368,43.80356],[11.52189,43.80061],[11.52124,43.80067],[11.51987,43.79978],[11.51969,43.7979],[11.51925,43.79771],[11.51977,43.79602],[11.51919,43.79512],[11.51586,43.79402],[11.51289,43.79223],[11.51253,43.79396],[11.50964,43.79489],[11.50673,43.79655],[11.50396,43.79524],[11.50101,43.79653],[11.49937,43.7965],[11.49322,43.79808],[11.48353,43.79797],[11.48229,43.79177],[11.47806,43.79296],[11.47374,43.79271],[11.47209,43.79358],[11.46879,43.79312],[11.46731,43.79359],[11.46556,43.79318],[11.46338,43.79211],[11.46455,43.7899],[11.46406,43.78797],[11.46075,43.78653],[11.45315,43.787],[11.45142,43.7861],[11.44814,43.78302],[11.44687,43.78087],[11.44461,43.77915],[11.44372,43.77789],[11.44223,43.772],[11.44114,43.77006]]]}},{"type":"Feature","properties":{"nome":"Pontassieve","osm_id":42622},"geometry":{"type":"Polygon","coordinates":[[[11.33973,43.82953],[11.3415,43.82589],[11.34255,43.82204],[11.34358,43.82193],[11.34465,43.82266],[11.34687,43.82512],[11.34656,43.82603],[11.34953,43.82481],[11.35052,43.82325],[11.35203,43.82256],[11.35408,43.82047],[11.35729,43.81829],[11.35697,43.81756],[11.35812,43.81522],[11.35813,43.81318],[11.36132,43.81046],[11.36253,43.81014],[11.36339,43.80745],[11.36437,43.80644],[11.36607,43.80574],[11.36652,43.80388],[11.3684,43.80292],[11.36979,43.80132],[11.37049,43.79922],[11.37324,43.79754],[11.37331,43.79659],[11.37491,43.79476],[11.375,43.79359],[11.37685,43.79118],[11.37635,43.79051],[11.37741,43.78861],[11.37663,43.78724],[11.37869,43.78413],[11.38188,43.78567],[11.38498,43.79194],[11.38869,43.79221],[11.39149,43.7902],[11.39364,43.78636],[11.39953,43.78232],[11.40247,43.77971],[11.40728,43.77967],[11.41218,43.77744],[11.41396,43.77488],[11.41418,43.7734],[11.41477,43.77273],[11.43314,43.76854],[11.43753,43.76875],[11.44114,43.77006],[11.44223,43.772],[11.44408,43.77854],[11.44639,43.78033],[11.44814,43.78302],[11.45142,43.7861],[11.45356,43.78705],[11.46075,43.78653],[11.46434,43.78828],[11.46463,43.78935],[11.46422,43.79093],[11.46073,43.79461],[11.46051,43.79592],[11.46102,43.79865],[11.46876,43.80196],[11.46927,43.80512],[11.4712,43.80756],[11.47272,43.80915],[11.47704,43.81154],[11.47882,43.81552],[11.48223,43.81723],[11.48194,43.81935],[11.4799,43.82257],[11.47982,43.8254],[11.48138,43.82723],[11.48388,43.82849],[11.48771,43.82892],[11.49318,43.82817],[11.49623,43.82959],[11.49667,43.83201],[11.49415,43.83523],[11.49213,43.84202],[11.4982,43.84691],[11.49966,43.84983],[11.50114,43.85084],[11.50478,43.85172],[11.51539,43.85006],[11.5177,43.85252],[11.51758,43.85589],[11.51797,43.85673],[11.52436,43.85739],[11.52503,43.85784],[11.52539,43.85966],[11.52599,43.86024],[11.53026,43.86271],[11.53105,43.86273],[11.5239,43.86596],[11.51749,43.87179],[11.51564,43.87164],[11.51003,43.87361],[11.50656,43.87523],[11.50427,43.87714],[11.50186,43.87738],[11.50107,43.87607],[11.49816,43.87565],[11.49445,43.87619],[11.48542,43.87822],[11.47771,43.88185],[11.47615,43.88333],[11.47412,43.88299],[11.47056,43.88415],[11.46657,43.88466],[11.46334,43.88335],[11.45975,43.87997],[11.45416,43.87729],[11.45136,43.87531],[11.44719,43.87693],[11.44127,43.8772],[11.44035,43.87863],[11.43573,43.87975],[11.42627,43.87241],[11.40953,43.87408],[11.40545,43.87392],[11.40031,43.86994],[11.38071,43.87292],[11.3467,43.87003],[11.351,43.86633],[11.34781,43.86184],[11.34689,43.8548],[11.34505,43.85051],[11.34449,43.84726],[11.34463,43.84471],[11.34277,43.83777],[11.34457,43.83331],[11.33973,43.82953]]]}},{"type":"Feature","properties":{"nome":"Rufina","osm_id":42646},"geometry":{"type":"Polygon","coordinates":[[[11.46051,43.79592],[11.46081,43.79448],[11.46338,43.79211],[11.46721,43.79358],[11.46879,43.79312],[11.47209,43.79358],[11.47374,43.79271],[11.47806,43.79296],[11.48224,43.79176],[11.48353,43.79797],[11.49322,43.79808],[11.49937,43.7965],[11.50101,43.79653],[11.50396,43.79524],[11.50673,43.79655],[11.50964,43.79489],[11.51253,43.79396],[11.51267,43.79235],[11.51319,43.79222],[11.51586,43.79402],[11.51943,43.79531],[11.51977,43.79602],[11.51925,43.79771],[11.51969,43.7979],[11.51987,43.79978],[11.52124,43.80067],[11.52183,43.80056],[11.523,43.80195],[11.52367,43.80396],[11.5214,43.80626],[11.52025,43.80615],[11.51818,43.81135],[11.51963,43.81297],[11.52263,43.81365],[11.5301,43.81115],[11.53418,43.81116],[11.53725,43.81025],[11.53745,43.81138],[11.53951,43.80968],[11.54149,43.80939],[11.54176,43.80785],[11.54466,43.80622],[11.54543,43.80518],[11.54918,43.80425],[11.55042,43.8044],[11.55221,43.80367],[11.55315,43.80288],[11.55344,43.80014],[11.55507,43.79944],[11.55594,43.79815],[11.55727,43.79776],[11.55847,43.79626],[11.55834,43.7943],[11.55931,43.79094],[11.56128,43.79011],[11.56519,43.78986],[11.5678,43.78829],[11.57291,43.78715],[11.57565,43.78553],[11.57824,43.785],[11.58208,43.78145],[11.58344,43.78128],[11.5857,43.77962],[11.59025,43.78254],[11.60366,43.78731],[11.6034,43.78982],[11.60223,43.79114],[11.60333,43.79739],[11.60472,43.80077],[11.6045,43.81049],[11.60069,43.8096],[11.59879,43.80984],[11.59369,43.80933],[11.5911,43.8083],[11.5863,43.80888],[11.58531,43.80945],[11.58606,43.81044],[11.58381,43.81025],[11.58211,43.81064],[11.57896,43.81249],[11.57816,43.81416],[11.57719,43.81448],[11.57488,43.81672],[11.57452,43.81645],[11.57285,43.82039],[11.57167,43.8219],[11.57174,43.82252],[11.5729,43.82363],[11.57273,43.82523],[11.57356,43.82711],[11.57237,43.82879],[11.57216,43.83118],[11.57132,43.83157],[11.57058,43.83327],[11.56995,43.83719],[11.56512,43.83536],[11.56211,43.83519],[11.55858,43.83662],[11.55502,43.83651],[11.55261,43.83563],[11.55174,43.83213],[11.53348,43.83657],[11.52669,43.8398],[11.52461,43.84161],[11.52874,43.84467],[11.52982,43.84417],[11.53151,43.84659],[11.53434,43.84744],[11.53615,43.84964],[11.53859,43.85133],[11.54383,43.85265],[11.54281,43.85594],[11.5404,43.85664],[11.54345,43.8572],[11.54381,43.85871],[11.54571,43.85941],[11.55029,43.86003],[11.54999,43.86083],[11.55067,43.86168],[11.55365,43.86227],[11.5551,43.86181],[11.55502,43.86398],[11.55398,43.86492],[11.55324,43.86468],[11.55155,43.86582],[11.54965,43.86538],[11.54826,43.86382],[11.54272,43.86354],[11.53757,43.86265],[11.53026,43.86271],[11.52599,43.86024],[11.52539,43.85966],[11.52503,43.85784],[11.52436,43.85739],[11.51797,43.85673],[11.51758,43.85589],[11.5177,43.85252],[11.51539,43.85006],[11.50478,43.85172],[11.50007,43.85022],[11.4982,43.84691],[11.49213,43.84202],[11.49415,43.83523],[11.49667,43.83201],[11.49623,43.82959],[11.49318,43.82817],[11.48771,43.82892],[11.48388,43.82849],[11.48138,43.82723],[11.47982,43.8254],[11.4799,43.82257],[11.48194,43.81935],[11.48223,43.81723],[11.47882,43.81552],[11.47704,43.81154],[11.47272,43.80915],[11.4712,43.80756],[11.46927,43.80512],[11.46876,43.80196],[11.46102,43.79865],[11.46051,43.79592]]]}},{"type":"Feature","properties":{"nome":"San Godenzo","osm_id":42717},"geometry":{"type":"Polygon","coordinates":[[[11.54986,43.91543],[11.55407,43.91257],[11.55552,43.91077],[11.55704,43.91035],[11.55846,43.91144],[11.55987,43.91176],[11.56161,43.91365],[11.56151,43.91173],[11.56277,43.91181],[11.56374,43.91097],[11.567,43.91081],[11.56792,43.91106],[11.56795,43.91165],[11.56852,43.91191],[11.5713,43.91097],[11.57228,43.91201],[11.57275,43.91192],[11.57278,43.9132],[11.57214,43.91427],[11.57405,43.91537],[11.5762,43.91545],[11.57758,43.9141],[11.57822,43.91421],[11.57939,43.91283],[11.57841,43.91257],[11.57819,43.91217],[11.5789,43.91192],[11.57774,43.91087],[11.57917,43.91025],[11.5783,43.90961],[11.57836,43.90901],[11.57982,43.90864],[11.58109,43.909],[11.58239,43.90724],[11.5837,43.90744],[11.58632,43.9068],[11.58739,43.90494],[11.58831,43.90428],[11.58759,43.90376],[11.58805,43.90358],[11.59656,43.90351],[11.60218,43.90449],[11.60634,43.90325],[11.60947,43.90371],[11.61136,43.90223],[11.61684,43.89974],[11.61988,43.89664],[11.62152,43.8962],[11.62319,43.89493],[11.62513,43.89458],[11.62766,43.893],[11.63964,43.89097],[11.64209,43.88791],[11.6416,43.88651],[11.64176,43.88363],[11.64547,43.88029],[11.65336,43.87814],[11.65656,43.87969],[11.65982,43.87844],[11.66325,43.8796],[11.66498,43.87813],[11.67059,43.8771],[11.67277,43.87503],[11.67558,43.8763],[11.67641,43.87776],[11.67846,43.8779],[11.67996,43.87741],[11.68106,43.87607],[11.68311,43.87505],[11.6917,43.87292],[11.69649,43.87363],[11.69826,43.87456],[11.70217,43.87448],[11.70401,43.87638],[11.70706,43.87717],[11.709,43.87756],[11.71167,43.87694],[11.71016,43.87991],[11.7109,43.88224],[11.71074,43.88366],[11.70848,43.88526],[11.70781,43.8863],[11.70792,43.88725],[11.71129,43.89122],[11.71058,43.89267],[11.71106,43.89409],[11.71187,43.89486],[11.71153,43.89552],[11.71466,43.89946],[11.71477,43.90135],[11.71585,43.90295],[11.71545,43.90565],[11.71462,43.90758],[11.7148,43.90919],[11.7132,43.91035],[11.71235,43.91216],[11.71486,43.91368],[11.71532,43.91576],[11.71601,43.91652],[11.71587,43.91713],[11.71758,43.91985],[11.7191,43.92131],[11.71879,43.92227],[11.71675,43.9215],[11.71424,43.92196],[11.71261,43.92369],[11.7107,43.92361],[11.7096,43.92561],[11.70636,43.92577],[11.70312,43.92741],[11.70175,43.92683],[11.69798,43.92842],[11.69769,43.92927],[11.69635,43.92786],[11.69367,43.92933],[11.69303,43.92926],[11.69163,43.93101],[11.69303,43.93267],[11.69213,43.93311],[11.69005,43.93274],[11.68706,43.93392],[11.68512,43.93516],[11.68483,43.93626],[11.68366,43.93666],[11.683,43.93779],[11.68322,43.939],[11.68664,43.94136],[11.68736,43.94396],[11.6884,43.94545],[11.68909,43.95006],[11.69121,43.95133],[11.69271,43.95318],[11.68961,43.95839],[11.68622,43.95983],[11.68383,43.96004],[11.67887,43.96184],[11.67429,43.96646],[11.67197,43.9662],[11.67069,43.96721],[11.66901,43.96968],[11.66894,43.97078],[11.66413,43.9738],[11.6546,43.97611],[11.65124,43.97861],[11.65053,43.98004],[11.64973,43.98042],[11.65001,43.98226],[11.6487,43.9833],[11.64771,43.98588],[11.64633,43.98712],[11.6471,43.98906],[11.647,43.9901],[11.64505,43.99141],[11.64375,43.9911],[11.64242,43.99178],[11.64215,43.99278],[11.63952,43.99389],[11.63697,43.99689],[11.63157,43.99754],[11.62533,43.99706],[11.62287,43.99859],[11.62007,43.99954],[11.62107,43.99671],[11.62047,43.99603],[11.62056,43.9946],[11.62003,43.99402],[11.62104,43.99225],[11.62245,43.99253],[11.62229,43.99214],[11.62325,43.99107],[11.62234,43.99032],[11.62272,43.9898],[11.62238,43.98939],[11.62067,43.98903],[11.62021,43.98815],[11.61923,43.98797],[11.62018,43.98678],[11.6188,43.98623],[11.6184,43.9854],[11.61733,43.98551],[11.61671,43.9862],[11.61429,43.98622],[11.61119,43.98562],[11.60782,43.98428],[11.60816,43.98391],[11.6079,43.98263],[11.60668,43.98147],[11.60757,43.9797],[11.60597,43.97792],[11.60596,43.97649],[11.60488,43.97553],[11.60449,43.97447],[11.60274,43.97373],[11.60231,43.97232],[11.5996,43.97091],[11.59949,43.97008],[11.60025,43.96857],[11.59976,43.96736],[11.60012,43.96632],[11.59764,43.96256],[11.59656,43.96199],[11.59533,43.96314],[11.59416,43.96201],[11.59429,43.96072],[11.59315,43.96068],[11.59202,43.95897],[11.59267,43.95825],[11.58897,43.95704],[11.58889,43.95611],[11.59058,43.9551],[11.58682,43.95278],[11.58571,43.95089],[11.5846,43.95036],[11.58483,43.94986],[11.58432,43.94941],[11.58416,43.94821],[11.58299,43.94812],[11.58277,43.94736],[11.58161,43.94706],[11.58004,43.94555],[11.57932,43.94383],[11.57663,43.94165],[11.57631,43.93993],[11.57559,43.93912],[11.5736,43.93868],[11.57311,43.93683],[11.57344,43.93587],[11.57253,43.93382],[11.57001,43.93394],[11.56924,43.93276],[11.56945,43.93152],[11.56863,43.93149],[11.56821,43.9308],[11.56688,43.9317],[11.56685,43.93113],[11.56619,43.93154],[11.56451,43.93013],[11.56267,43.93163],[11.56082,43.93002],[11.55762,43.92965],[11.55397,43.92801],[11.55586,43.9263],[11.55464,43.9255],[11.55367,43.92569],[11.55216,43.92466],[11.55279,43.92328],[11.5552,43.92435],[11.55572,43.92333],[11.55485,43.92143],[11.5544,43.91887],[11.55509,43.91693],[11.54986,43.91543]]]}},{"type":"Feature","properties":{"nome":"Scarperia e San Piero","osm_id":42801},"geometry":{"type":"Polygon","coordinates":[[[11.24126,43.93493],[11.24152,43.9338],[11.24452,43.93161],[11.24936,43.93066],[11.251,43.93103],[11.25576,43.93382],[11.25867,43.93473],[11.26155,43.93359],[11.26458,43.93344],[11.26584,43.93384],[11.26717,43.93329],[11.26828,43.93426],[11.26972,43.93427],[11.27154,43.93339],[11.27647,43.93273],[11.27806,43.93199],[11.27832,43.93131],[11.27963,43.93157],[11.28051,43.93028],[11.28177,43.92998],[11.28277,43.92885],[11.28722,43.92608],[11.28918,43.92631],[11.2902,43.92556],[11.29204,43.92605],[11.29342,43.92766],[11.29517,43.92627],[11.29728,43.92827],[11.2987,43.92865],[11.29911,43.92662],[11.30035,43.92437],[11.30035,43.92308],[11.3029,43.92181],[11.30417,43.92044],[11.30713,43.91968],[11.30874,43.92026],[11.31009,43.9201],[11.31069,43.923],[11.31046,43.92545],[11.31101,43.92717],[11.30861,43.9285],[11.30686,43.93022],[11.30963,43.93091],[11.31123,43.93004],[11.31442,43.93039],[11.31854,43.93496],[11.32016,43.93546],[11.32112,43.93762],[11.32304,43.9395],[11.32282,43.94057],[11.32335,43.94158],[11.32579,43.94337],[11.33255,43.94629],[11.33406,43.94885],[11.33787,43.94969],[11.34087,43.95104],[11.34351,43.95277],[11.34832,43.95707],[11.34932,43.95662],[11.35106,43.96112],[11.36096,43.96096],[11.36462,43.96414],[11.36703,43.96414],[11.36711,43.96352],[11.3686,43.96353],[11.36861,43.96163],[11.3697,43.96154],[11.36949,43.9621],[11.37226,43.96332],[11.37245,43.96498],[11.37509,43.96412],[11.37535,43.96653],[11.37782,43.96981],[11.37898,43.97344],[11.37602,43.97424],[11.37707,43.97586],[11.37593,43.97625],[11.37573,43.97584],[11.37146,43.97759],[11.3765,43.98399],[11.37573,43.98443],[11.37434,43.98355],[11.37331,43.98417],[11.37355,43.98454],[11.3771,43.98559],[11.37711,43.98837],[11.38004,43.98857],[11.38186,43.99061],[11.38303,43.99298],[11.38699,43.99496],[11.38637,43.9974],[11.38489,43.99994],[11.38421,44.00014],[11.38491,44.00179],[11.38397,44.00303],[11.38479,44.0049],[11.38371,44.00579],[11.3835,44.00666],[11.38365,44.0102],[11.38248,44.01129],[11.38322,44.0128],[11.38258,44.01427],[11.38285,44.01697],[11.38379,44.01777],[11.38274,44.01824],[11.38421,44.01974],[11.38419,44.02103],[11.38528,44.02185],[11.38545,44.02267],[11.38485,44.02315],[11.3858,44.02362],[11.38616,44.02638],[11.3872,44.02892],[11.38684,44.02997],[11.38902,44.0312],[11.38927,44.03425],[11.39001,44.03536],[11.39084,44.03554],[11.3896,44.03729],[11.39055,44.04154],[11.39121,44.04221],[11.39073,44.04342],[11.38813,44.04594],[11.38795,44.04761],[11.38581,44.04942],[11.38382,44.05028],[11.38353,44.05278],[11.38256,44.05478],[11.38048,44.05589],[11.37908,44.05583],[11.3757,44.0568],[11.37504,44.05778],[11.37382,44.05837],[11.3737,44.05957],[11.3705,44.06147],[11.36588,44.06751],[11.36083,44.07019],[11.35938,44.07013],[11.35314,44.06819],[11.3497,44.06857],[11.34765,44.07002],[11.34472,44.0708],[11.33788,44.07023],[11.33587,44.06916],[11.32889,44.07277],[11.32786,44.07475],[11.32837,44.07567],[11.32796,44.07674],[11.32704,44.07778],[11.32523,44.07793],[11.32379,44.07926],[11.31914,44.07924],[11.31612,44.07837],[11.31292,44.0795],[11.3103,44.08177],[11.30277,44.08291],[11.29985,44.08381],[11.29244,44.07811],[11.29139,44.07663],[11.29015,44.07637],[11.28905,44.07507],[11.28768,44.07525],[11.28706,44.07331],[11.28415,44.07107],[11.28513,44.06772],[11.28257,44.06376],[11.28168,44.06261],[11.27935,44.06112],[11.27849,44.05895],[11.2771,44.05826],[11.27703,44.05758],[11.2751,44.05559],[11.27405,44.05371],[11.27269,44.0528],[11.27232,44.05029],[11.27006,44.04952],[11.26929,44.04529],[11.27058,44.04212],[11.26901,44.04106],[11.26985,44.04059],[11.2706,44.03922],[11.28592,44.03698],[11.29447,44.02779],[11.29633,44.02746],[11.29794,44.02602],[11.2979,44.02451],[11.29902,44.02151],[11.29842,44.01963],[11.30067,44.0141],[11.30206,44.01252],[11.30219,44.01112],[11.30507,44.00864],[11.30906,44.00706],[11.30972,44.00389],[11.31087,44.00338],[11.31214,44.00163],[11.3123,43.99941],[11.31152,43.9978],[11.31291,43.99574],[11.31272,43.99269],[11.31182,43.99279],[11.31079,43.99379],[11.30944,43.99645],[11.30649,43.99543],[11.30563,43.99744],[11.30413,43.99735],[11.30261,43.99658],[11.3019,43.99731],[11.30164,43.99918],[11.29875,43.99915],[11.29311,43.99788],[11.29552,43.99352],[11.29604,43.99158],[11.29506,43.98918],[11.29504,43.98721],[11.29184,43.9808],[11.29122,43.97549],[11.28968,43.97503],[11.29076,43.97228],[11.29463,43.97156],[11.29848,43.9685],[11.29999,43.96657],[11.30308,43.96451],[11.29623,43.96452],[11.29057,43.96288],[11.29063,43.96414],[11.29126,43.96484],[11.2862,43.9635],[11.28146,43.964],[11.28045,43.96296],[11.27952,43.96308],[11.2791,43.96431],[11.2783,43.96478],[11.27655,43.96436],[11.27525,43.9648],[11.27427,43.96396],[11.27206,43.9647],[11.27093,43.96518],[11.27051,43.96624],[11.26945,43.9666],[11.2688,43.96767],[11.26767,43.96762],[11.26448,43.96909],[11.2631,43.96899],[11.26091,43.97075],[11.2592,43.97133],[11.25677,43.96776],[11.25682,43.96654],[11.25833,43.96525],[11.25889,43.96238],[11.25818,43.95866],[11.25679,43.95644],[11.25694,43.95551],[11.2555,43.95253],[11.25416,43.95265],[11.25211,43.95364],[11.25041,43.95349],[11.2478,43.95231],[11.24706,43.95111],[11.24626,43.95108],[11.24535,43.95028],[11.24476,43.94939],[11.24571,43.94933],[11.24532,43.94833],[11.24278,43.94401],[11.24368,43.93862],[11.24187,43.93687],[11.24126,43.93493]]]}},{"type":"Feature","properties":{"nome":"Vaglia","osm_id":42709},"geometry":{"type":"Polygon","coordinates":[[[11.23009,43.9002],[11.23096,43.89906],[11.23087,43.89727],[11.2328,43.8924],[11.2326,43.88958],[11.2337,43.88657],[11.23161,43.88224],[11.23266,43.87994],[11.23469,43.87927],[11.23665,43.87567],[11.23751,43.87303],[11.24014,43.87302],[11.24078,43.87261],[11.24161,43.87108],[11.2423,43.86687],[11.24332,43.86603],[11.24861,43.86421],[11.25273,43.86193],[11.25467,43.86247],[11.25835,43.86492],[11.25835,43.86558],[11.25959,43.86702],[11.26035,43.86713],[11.26215,43.8703],[11.26331,43.87089],[11.26339,43.87359],[11.27254,43.87112],[11.28213,43.87135],[11.28502,43.87026],[11.28518,43.86969],[11.28597,43.86938],[11.28624,43.86897],[11.28587,43.86826],[11.28474,43.86735],[11.28215,43.867],[11.28026,43.86591],[11.27549,43.86534],[11.27381,43.86457],[11.27546,43.86382],[11.27673,43.86153],[11.28111,43.85984],[11.28264,43.8597],[11.28301,43.85882],[11.28409,43.85838],[11.28432,43.85667],[11.28768,43.86191],[11.29044,43.86113],[11.2903,43.85746],[11.29112,43.85706],[11.29007,43.85566],[11.29095,43.85398],[11.29077,43.85255],[11.29164,43.85176],[11.29195,43.85023],[11.28949,43.84949],[11.28635,43.84703],[11.28631,43.84628],[11.28993,43.84373],[11.28882,43.84148],[11.28875,43.84027],[11.28964,43.83718],[11.28992,43.8386],[11.29127,43.84028],[11.29626,43.84047],[11.29672,43.84028],[11.29664,43.83902],[11.29803,43.83848],[11.29851,43.83777],[11.30006,43.83892],[11.30073,43.83819],[11.30171,43.83827],[11.30288,43.84009],[11.30232,43.84118],[11.30096,43.84167],[11.30102,43.84306],[11.30254,43.84416],[11.30147,43.84499],[11.30255,43.84444],[11.30427,43.84453],[11.30756,43.84317],[11.30783,43.84266],[11.30931,43.84347],[11.3096,43.84456],[11.31525,43.84923],[11.31986,43.84885],[11.31935,43.8503],[11.321,43.8534],[11.32293,43.8528],[11.32431,43.85472],[11.326,43.85393],[11.32717,43.85641],[11.3305,43.85798],[11.336,43.86264],[11.33946,43.86412],[11.34172,43.86588],[11.344,43.86816],[11.34413,43.86946],[11.34472,43.87022],[11.34347,43.87493],[11.34478,43.87637],[11.34493,43.87884],[11.34726,43.8815],[11.34959,43.88275],[11.35208,43.88697],[11.35187,43.88825],[11.35346,43.88961],[11.35409,43.89101],[11.35255,43.89162],[11.34495,43.89177],[11.34345,43.89205],[11.34254,43.89293],[11.34162,43.89247],[11.34003,43.89318],[11.33599,43.89358],[11.33494,43.89416],[11.33552,43.89456],[11.33479,43.89664],[11.33248,43.8982],[11.33263,43.89849],[11.33027,43.89933],[11.32729,43.90244],[11.32521,43.90282],[11.32128,43.90472],[11.32019,43.90472],[11.31799,43.90597],[11.3164,43.90774],[11.31652,43.90903],[11.31742,43.91052],[11.31267,43.91228],[11.3109,43.91216],[11.3116,43.91297],[11.31082,43.91463],[11.31131,43.91576],[11.31009,43.9201],[11.30874,43.92026],[11.30713,43.91968],[11.30417,43.92044],[11.3029,43.92181],[11.30035,43.92308],[11.30035,43.92437],[11.29911,43.92662],[11.2987,43.92865],[11.29728,43.92827],[11.29517,43.92627],[11.29345,43.92766],[11.29165,43.92584],[11.29015,43.92557],[11.28905,43.92632],[11.28756,43.92598],[11.28277,43.92885],[11.28177,43.92998],[11.28051,43.93028],[11.27963,43.93157],[11.27832,43.93131],[11.27806,43.93199],[11.27647,43.93273],[11.27154,43.93339],[11.26925,43.93436],[11.26806,43.93415],[11.26717,43.93329],[11.26584,43.93384],[11.26458,43.93344],[11.26155,43.93359],[11.25867,43.93473],[11.25384,43.93297],[11.25053,43.93087],[11.25078,43.92798],[11.25179,43.92671],[11.26138,43.92441],[11.26068,43.91733],[11.25245,43.91862],[11.24852,43.9185],[11.25209,43.91511],[11.25333,43.91454],[11.25316,43.91246],[11.25407,43.91165],[11.25306,43.91123],[11.24993,43.90748],[11.25041,43.90606],[11.24801,43.90455],[11.23746,43.9027],[11.23601,43.902],[11.23578,43.90032],[11.23507,43.90005],[11.23134,43.89964],[11.23009,43.9002]]]}},{"type":"Feature","properties":{"nome":"Vicchio","osm_id":42720},"geometry":{"type":"Polygon","coordinates":[[[11.41637,43.96032],[11.4187,43.95916],[11.41813,43.95803],[11.42077,43.95717],[11.41942,43.95453],[11.42018,43.95419],[11.41997,43.95315],[11.42093,43.95288],[11.42111,43.9519],[11.41946,43.94986],[11.41923,43.94785],[11.41961,43.9476],[11.41876,43.94391],[11.41775,43.94037],[11.41643,43.93865],[11.41752,43.93825],[11.41901,43.93605],[11.4212,43.9341],[11.42181,43.93442],[11.423,43.93342],[11.42427,43.93132],[11.42248,43.92899],[11.4197,43.92757],[11.4177,43.92448],[11.41912,43.92404],[11.42254,43.92018],[11.42346,43.91843],[11.42386,43.91507],[11.42454,43.91373],[11.42666,43.91242],[11.42692,43.91021],[11.42829,43.90849],[11.42981,43.90779],[11.43002,43.90568],[11.42923,43.90503],[11.4284,43.90215],[11.43015,43.89964],[11.43177,43.89847],[11.43382,43.89782],[11.43435,43.8964],[11.43565,43.89505],[11.43655,43.89213],[11.43533,43.88956],[11.43571,43.88819],[11.43979,43.88602],[11.44109,43.88624],[11.44193,43.88555],[11.44252,43.88667],[11.44275,43.88603],[11.44241,43.8812],[11.43582,43.87973],[11.44035,43.87863],[11.44127,43.8772],[11.44719,43.87693],[11.45136,43.87531],[11.45416,43.87729],[11.45975,43.87997],[11.46334,43.88335],[11.46657,43.88466],[11.47056,43.88415],[11.47412,43.88299],[11.47615,43.88333],[11.47772,43.88185],[11.47844,43.8844],[11.48134,43.88706],[11.48172,43.88801],[11.48426,43.88984],[11.48709,43.89362],[11.48981,43.8949],[11.49065,43.89619],[11.49236,43.89608],[11.4909,43.8985],[11.49131,43.9001],[11.49203,43.90036],[11.49401,43.89902],[11.49573,43.89914],[11.49659,43.89856],[11.49755,43.90063],[11.49952,43.90177],[11.5018,43.89998],[11.5041,43.89907],[11.50435,43.89838],[11.50344,43.89718],[11.50537,43.8965],[11.50803,43.89642],[11.50766,43.89682],[11.50799,43.89777],[11.51104,43.8987],[11.50924,43.90076],[11.5021,43.90532],[11.50161,43.90603],[11.50162,43.90647],[11.50578,43.90911],[11.50675,43.91041],[11.50619,43.91172],[11.50281,43.91335],[11.50179,43.91497],[11.50201,43.91653],[11.50347,43.91809],[11.50576,43.91892],[11.5058,43.92022],[11.5066,43.92068],[11.50633,43.92137],[11.5073,43.92148],[11.50761,43.9222],[11.5088,43.92282],[11.51041,43.92297],[11.5107,43.9236],[11.51334,43.92516],[11.51484,43.92495],[11.51686,43.92785],[11.52133,43.93035],[11.52498,43.92921],[11.52771,43.92917],[11.52945,43.92966],[11.53426,43.92667],[11.53801,43.92654],[11.5391,43.93139],[11.53821,43.93308],[11.53838,43.9348],[11.53541,43.9369],[11.53626,43.93763],[11.53865,43.93759],[11.54171,43.93836],[11.54099,43.93896],[11.54211,43.93947],[11.54255,43.94061],[11.54365,43.94119],[11.54408,43.94234],[11.54149,43.94593],[11.54215,43.94756],[11.54518,43.94856],[11.54968,43.95361],[11.55271,43.95478],[11.55335,43.95559],[11.55986,43.95757],[11.56272,43.95795],[11.56474,43.95994],[11.56617,43.96043],[11.56652,43.96316],[11.57002,43.96436],[11.57256,43.96695],[11.57371,43.96703],[11.57585,43.96825],[11.57714,43.97002],[11.5795,43.97141],[11.58324,43.97319],[11.58836,43.97459],[11.59024,43.97432],[11.5912,43.9748],[11.59429,43.9747],[11.59501,43.97519],[11.59754,43.98007],[11.59678,43.9817],[11.59695,43.98505],[11.59821,43.98807],[11.5961,43.98934],[11.59637,43.99037],[11.59529,43.99117],[11.59421,43.99129],[11.59398,43.99213],[11.59317,43.99263],[11.59322,43.99396],[11.59219,43.99437],[11.59271,43.99496],[11.59094,43.99772],[11.58806,43.99939],[11.58634,44.0011],[11.58799,44.0026],[11.58683,44.00276],[11.58643,44.00455],[11.58334,44.00645],[11.5835,44.00728],[11.58244,44.007],[11.58278,44.00902],[11.58215,44.00967],[11.58275,44.01028],[11.57873,44.01048],[11.57499,44.00953],[11.57267,44.00978],[11.57113,44.01136],[11.56968,44.01161],[11.56993,44.0131],[11.56873,44.01451],[11.56544,44.01629],[11.56569,44.01833],[11.56356,44.02078],[11.56239,44.0203],[11.5605,44.02059],[11.55722,44.01998],[11.55643,44.01876],[11.55705,44.01758],[11.55715,44.01643],[11.55645,44.01452],[11.55702,44.01354],[11.55374,44.01193],[11.55302,44.01108],[11.55295,44.0102],[11.55018,44.00856],[11.54794,44.00978],[11.54662,44.00947],[11.54376,44.01051],[11.53415,44.01141],[11.53077,44.01111],[11.52775,44.01212],[11.52775,44.01293],[11.52636,44.01335],[11.52544,44.01481],[11.52359,44.01542],[11.52284,44.01837],[11.5207,44.01967],[11.51515,44.02064],[11.50276,44.02498],[11.50162,44.02637],[11.49881,44.02802],[11.49708,44.02996],[11.4953,44.03034],[11.49522,44.03077],[11.49329,44.03168],[11.48819,44.03041],[11.48592,44.03148],[11.48459,44.02836],[11.4855,44.02707],[11.48358,44.02713],[11.48253,44.02646],[11.47667,44.02495],[11.47723,44.02436],[11.4764,44.02375],[11.47681,44.02266],[11.47248,44.01636],[11.47058,44.01491],[11.46943,44.01257],[11.4654,44.01144],[11.46421,44.01027],[11.45923,44.0084],[11.45881,44.00693],[11.45206,44.0034],[11.45125,44.00217],[11.44894,44.00111],[11.44857,44.0003],[11.44594,43.99868],[11.44488,43.99616],[11.44608,43.9948],[11.44651,43.99286],[11.4461,43.99185],[11.44224,43.98814],[11.44063,43.98717],[11.43433,43.98767],[11.43452,43.98671],[11.43699,43.98515],[11.43605,43.98503],[11.43777,43.98293],[11.43488,43.98096],[11.43621,43.98138],[11.43813,43.98012],[11.43642,43.97836],[11.43742,43.97758],[11.43631,43.97648],[11.43619,43.97561],[11.43414,43.97386],[11.43147,43.96983],[11.42988,43.96825],[11.42082,43.96843],[11.42083,43.96735],[11.42009,43.96741],[11.41982,43.96657],[11.42109,43.96637],[11.42087,43.96343],[11.4196,43.96341],[11.41917,43.96139],[11.41726,43.96176],[11.41637,43.96032]]]}}]}